{
    "links": {
        "self": "http://www.neowsapp.com/rest/v1/neo/3760526?api_key=iIulBulltgU6a56xZRHN4H3l9WmuAYTsLGpBGhQ2"
    },
    "id": "3760526",
    "neo_reference_id": "3760526",
    "name": "(2016 TO11)",
    "designation": "2016 TO11",
    "nasa_jpl_url": "http://ssd.jpl.nasa.gov/sbdb.cgi?sstr=3760526",
    "absolute_magnitude_h": 27.3,
    "estimated_diameter": {
        "kilometers": {
            "estimated_diameter_min": 0.0092162655,
            "estimated_diameter_max": 0.0206081961
        },
        "meters": {
            "estimated_diameter_min": 9.216265485,
            "estimated_diameter_max": 20.6081961232
        },
        "miles": {
            "estimated_diameter_min": 0.0057267201,
            "estimated_diameter_max": 0.0128053354
        },
        "feet": {
            "estimated_diameter_min": 30.2370924539,
            "estimated_diameter_max": 67.6121941689
        }
    },
    "is_potentially_hazardous_asteroid": false,
    "close_approach_data": [
        {
            "close_approach_date": "2016-10-12",
            "close_approach_date_full": "2016-Oct-12 10:55",
            "epoch_date_close_approach": 1476269700000,
            "relative_velocity": {
                "kilometers_per_second": "9.972175967",
                "kilometers_per_hour": "35899.8334811025",
                "miles_per_hour": "22306.7604205217"
            },
            "miss_distance": {
                "astronomical": "0.0058602474",
                "lunar": "2.2796362386",
                "kilometers": "876680.528713038",
                "miles": "544744.0204264044"
            },
            "orbiting_body": "Moon"
        },
        {
            "close_approach_date": "2016-10-12",
            "close_approach_date_full": "2016-Oct-12 19:01",
            "epoch_date_close_approach": 1476298860000,
            "relative_velocity": {
                "kilometers_per_second": "9.7975842121",
                "kilometers_per_hour": "35271.3031634444",
                "miles_per_hour": "21916.2161239746"
            },
            "miss_distance": {
                "astronomical": "0.0059920728",
                "lunar": "2.3309163192",
                "kilometers": "896401.327764936",
                "miles": "556997.9567346768"
            },
            "orbiting_body": "Earth"
        },
        {
            "close_approach_date": "2019-09-18",
            "close_approach_date_full": "2019-Sep-18 05:45",
            "epoch_date_close_approach": 1568785500000,
            "relative_velocity": {
                "kilometers_per_second": "17.4635146347",
                "kilometers_per_hour": "62868.6526850752",
                "miles_per_hour": "39064.1358864568"
            },
            "miss_distance": {
                "astronomical": "0.2538445216",
                "lunar": "98.7455189024",
                "kilometers": "37974599.742528992",
                "miles": "23596322.1040124096"
            },
            "orbiting_body": "Earth"
        }
    ],
    "orbital_data": {
        "orbit_id": "6",
        "orbit_determination_date": "2017-04-06 08:23:17",
        "first_observation_date": "2016-10-06",
        "last_observation_date": "2016-10-11",
        "data_arc_in_days": 5,
        "observations_used": 30,
        "orbit_uncertainty": "8",
        "minimum_orbit_intersection": ".00559097",
        "jupiter_tisserand_invariant": "3.567",
        "epoch_osculation": "2457668.5",
        "eccentricity": ".5470512818890449",
        "semi_major_axis": "2.069345027185258",
        "inclination": "4.361044208463734",
        "ascending_node_longitude": "196.1684466762755",
        "orbital_period": "1087.295995337832",
        "perihelion_distance": ".9373071773928422",
        "perihelion_argument": "218.4947728796621",
        "aphelion_distance": "3.201382876977674",
        "perihelion_time": "2457701.301979100012",
        "mean_anomaly": "349.139376465435",
        "mean_motion": ".3310965933321082",
        "equinox": "J2000",
        "orbit_class": {
            "orbit_class_type": "APO",
            "orbit_class_description": "Near-Earth asteroid orbits which cross the Earth’s orbit similar to that of 1862 Apollo",
            "orbit_class_range": "a (semi-major axis) > 1.0 AU; q (perihelion) < 1.017 AU"
        }
    },
    "is_sentry_object": false
}